[{"OBJECT_NAME":"STARLINK-30069","OBJECT_ID":"2023-079M","EPOCH":"2026-03-08T11:34:15.947328","MEAN_MOTION":15.26726881,"ECCENTRICITY":4.69e-5,"INCLINATION":42.9986,"RA_OF_ASC_NODE":110.4464,"ARG_OF_PERICENTER":272.6695,"MEAN_ANOMALY":87.4103,"EPHEMERIS_TYPE":0,"CLASSIFICATION_TYPE":"U","NORAD_CAT_ID":56834,"ELEMENT_SET_NO":999,"REV_AT_EPOCH":15274,"BSTAR":-8.0472e-5,"MEAN_MOTION_DOT":-2.416e-5,"MEAN_MOTION_DDOT":0},{"OBJECT_NAME":"STARLINK-35470","OBJECT_ID":"2025-259J","EPOCH":"2026-03-09T22:51:18.565344","MEAN_MOTION":15.27596823,"ECCENTRICITY":0.00014858,"INCLINATION":43.0046,"RA_OF_ASC_NODE":272.6763,"ARG_OF_PERICENTER":275.1198,"MEAN_ANOMALY":84.9484,"EPHEMERIS_TYPE":0,"CLASSIFICATION_TYPE":"U","NORAD_CAT_ID":66430,"ELEMENT_SET_NO":999,"REV_AT_EPOCH":1953,"BSTAR":0.001211249,"MEAN_MOTION_DOT":0.00033236,"MEAN_MOTION_DDOT":0}]
